NORAD_CAT_ID,OBJECT_NAME,OBJECT_TYPE,EPOCH,MEAN_MOTION,ECCENTRICITY,INCLINATION,RA_OF_ASC_NODE,ARG_OF_PERICENTER,MEAN_ANOMALY,BSTAR,MEAN_MOTION_DOT,MEAN_MOTION_DDOT,TLE_LINE0,TLE_LINE1,TLE_LINE2,SEMIMAJOR_AXIS,PERIOD,APOGEE,PERIGEE,DECAYED
55779.0,STARLINK-5817,PAYLOAD,2023-04-19 04:09:34,15.69918561,0.0002709,70.0036,24.5147,253.5186,106.5713,-8.0869e-06,-1.184e-05,0.0,0 STARLINK-5817,1 55779U 23028AQ  23109.17331787 -.00001184  00000-0 -80869-5 0  9992,2 55779  70.0036  24.5147 0002709 253.5186 106.5713 15.69918561  7968,6737.267,91.725,360.957,357.307,0.0
55779.0,STARLINK-5817,PAYLOAD,2023-04-19 17:55:20,15.69925052,0.0002716,70.0037,22.9015,260.505,99.5839,3.1698e-05,3.601e-05,0.0,0 STARLINK-5817,1 55779U 23028AQ  23109.74676810  .00003601  00000-0  31698-4 0  9993,2 55779  70.0037  22.9015 0002716 260.5050  99.5839 15.69925052  8055,6737.248,91.724,360.943,357.284,0.0
55779.0,STARLINK-5817,PAYLOAD,2023-04-20 04:37:36,15.6994479,0.0003528,70.003,21.648,260.287,99.7927,0.00010334,0.00012242,0.0,0 STARLINK-5817,1 55779U 23028AQ  23110.19277891  .00012242  00000-0  10334-3 0  9994,2 55779  70.0030  21.6480 0003528 260.2870  99.7927 15.69944790  8127,6737.192,91.723,361.434,356.68,0.0
55779.0,STARLINK-5817,PAYLOAD,2023-04-21 00:30:22,15.69950266,0.0001932,70.0045,19.3166,258.9243,101.1736,0.00013057,0.00015531,0.0,0 STARLINK-5817,1 55779U 23028AQ  23111.02109803  .00015531  00000-0  13057-3 0  9993,2 55779  70.0045  19.3166 0001932 258.9243 101.1736 15.69950266  8258,6737.176,91.723,360.343,357.74,0.0
55779.0,STARLINK-5817,PAYLOAD,2023-04-21 03:33:53,15.69923112,0.0002732,70.0031,18.9609,265.7185,94.3699,8.1378e-06,7.66e-06,0.0,0 STARLINK-5817,1 55779U 23028AQ  23111.14853730  .00000766  00000-0  81378-5 0  9998,2 55779  70.0031  18.9609 0002732 265.7185  94.3699 15.69923112  8273,6737.254,91.724,360.96,357.278,0.0
55779.0,STARLINK-5817,PAYLOAD,2023-04-21 17:19:39,15.69934444,0.0003001,70.0029,17.3471,269.9979,90.0872,0.0001378,0.00016395,0.0,0 STARLINK-5817,1 55779U 23028AQ  23111.72198490  .00016395  00000-0  13780-3 0  9992,2 55779  70.0029  17.3471 0003001 269.9979  90.0872 15.69934444  8363,6737.222,91.724,361.108,357.065,0.0
55779.0,STARLINK-5817,PAYLOAD,2023-04-22 04:01:55,15.69939964,0.0003143,70.0026,16.0928,272.8396,87.244,0.00014718,0.00017532,0.0,0 STARLINK-5817,1 55779U 23028AQ  23112.16799947  .00017532  00000-0  14718-3 0  9991,2 55779  70.0026  16.0928 0003143 272.8396  87.2440 15.69939964  8435,6737.206,91.723,361.188,356.953,0.0
55779.0,STARLINK-5817,PAYLOAD,2023-04-23 01:26:27,15.69908263,0.0003288,70.0005,13.5841,259.967,100.1155,4.7494e-06,3.58e-06,0.0,0 STARLINK-5817,1 55779U 23028AQ  23113.06004363  .00000358  00000-0  47494-5 0  9999,2 55779  70.0005  13.5841 0003288 259.9670 100.1155 15.69908263  8570,6737.296,91.725,361.377,356.946,0.0
55779.0,STARLINK-5817,PAYLOAD,2023-04-23 16:43:58,15.69935978,0.0003293,70.0017,11.7942,259.4193,100.6632,8.646e-05,0.00010201,0.0,0 STARLINK-5817,1 55779U 23028AQ  23113.69720418  .00010201  00000-0  86460-4 0  9997,2 55779  70.0017  11.7942 0003293 259.4193 100.6632 15.69935978  8675,6737.217,91.723,361.301,356.864,0.0
55779.0,STARLINK-5817,PAYLOAD,2023-04-24 03:26:13,15.69966894,0.0003253,70.0019,10.541,253.8239,106.2598,0.00017373,0.00020765,0.0,0 STARLINK-5817,1 55779U 23028AQ  23114.14321283  .00020765  00000-0  17373-3 0  9997,2 55779  70.0019  10.5410 0003253 253.8239 106.2598 15.69966894  8741,6737.129,91.722,361.185,356.802,0.0
55779.0,STARLINK-5817,PAYLOAD,2023-04-24 17:11:59,15.69964411,0.0001714,70.0022,8.9292,256.6807,103.4197,0.00010693,0.00012683,0.0,0 STARLINK-5817,1 55779U 23028AQ  23114.71665714  .00012683  00000-0  10693-3 0  9998,2 55779  70.0022   8.9292 0001714 256.6807 103.4197 15.69964411  8833,6737.136,91.722,360.156,357.846,0.0
55779.0,STARLINK-5817,PAYLOAD,2023-04-25 02:22:31,15.69893814,0.0002427,70.0015,7.8544,301.0681,59.0276,-0.00017666,-0.0002137,0.0,0 STARLINK-5817,1 55779U 23028AQ  23115.09897098 -.00021370  00000-0 -17666-3 0  9994,2 55779  70.0015   7.8544 0002427 301.0681  59.0276 15.69893814  8898,6737.338,91.726,360.838,357.568,0.0
55779.0,STARLINK-5817,PAYLOAD,2023-04-26 02:50:35,15.69902664,0.0002962,70.0019,4.9873,302.52,57.5709,0.000173,0.0002062,0.0,0 STARLINK-5817,1 55779U 23028AQ  23116.11846546  .00020620  00000-0  17300-3 0  9990,2 55779  70.0019   4.9873 0002962 302.5200  57.5709 15.69902664  9059,6737.312,91.725,361.173,357.182,0.0
55779.0,STARLINK-5817,PAYLOAD,2023-04-26 16:36:20,15.69947316,0.0003329,70.0024,3.3727,277.8112,82.2706,0.00021278,0.00025474,0.0,0 STARLINK-5817,1 55779U 23028AQ  23116.69190090  .00025474  00000-0  21278-3 0  9990,2 55779  70.0024   3.3727 0003329 277.8112  82.2706 15.69947316  9145,6737.185,91.723,361.293,356.807,0.0
55779.0,STARLINK-5817,PAYLOAD,2023-04-28 02:14:52,15.69924891,0.0002872,70.0006,359.4346,300.7643,59.327,-3.3562e-05,-4.246e-05,0.0,0 STARLINK-5817,1 55779U 23028AQ  23118.09366118 -.00004246  00000-0 -33562-4 0  9998,2 55779  70.0006 359.4346 0002872 300.7643  59.3270 15.69924891  9362,6737.249,91.724,361.049,357.179,0.0
55779.0,STARLINK-5817,PAYLOAD,2023-04-28 16:00:36,15.69941878,0.0003861,70.0007,357.8216,265.6248,94.4507,-0.00014849,-0.00018044,0.0,0 STARLINK-5817,1 55779U 23028AQ  23118.66709489 -.00018044  00000-0 -14849-3 0  9990,2 55779  70.0007 357.8216 0003861 265.6248  94.4507 15.69941878  9457,6737.2,91.723,361.667,356.464,0.0
55779.0,STARLINK-5817,PAYLOAD,2023-04-29 01:11:09,15.6991088,0.0002069,70.0028,356.7486,279.6598,80.4364,-4.9244e-05,-6.124e-05,0.0,0 STARLINK-5817,1 55779U 23028AQ  23119.04941604 -.00006124  00000-0 -49244-4 0  9994,2 55779  70.0028 356.7486 0002069 279.6598  80.4364 15.69910880  9511,6737.289,91.725,360.548,357.76,0.0
55779.0,STARLINK-5817,PAYLOAD,2023-04-29 16:28:40,15.69920167,0.0003305,69.9999,354.956,273.4014,86.6804,2.6812e-05,3.012e-05,0.0,0 STARLINK-5817,1 55779U 23028AQ  23119.68657979  .00003012  00000-0  26812-4 0  9990,2 55779  69.9999 354.9560 0003305 273.4014  86.6804 15.69920167  9614,6737.262,91.724,361.354,356.901,0.0
55779.0,STARLINK-5817,PAYLOAD,2023-04-30 01:39:10,15.69934909,0.0002979,70.0019,353.8792,289.3598,70.7275,5.1786e-05,6.021e-05,0.0,0 STARLINK-5817,1 55779U 23028AQ  23120.06887705  .00006021  00000-0  51786-4 0  9997,2 55779  70.0019 353.8792 0002979 289.3598  70.7275 15.69934909  9675,6737.22,91.724,361.092,357.078,0.0
55779.0,STARLINK-5817,PAYLOAD,2023-04-30 18:28:27,15.69921755,0.0003078,70.0021,351.9088,281.0172,79.0678,1.0929e-05,1.102e-05,0.0,0 STARLINK-5817,1 55779U 23028AQ  23120.76976475  .00001102  00000-0  10929-4 0  9996,2 55779  70.0021 351.9088 0003078 281.0172  79.0678 15.69921755  9789,6737.258,91.724,361.197,357.049,0.0
55779.0,STARLINK-5817,PAYLOAD,2023-05-01 00:35:28,15.69924388,0.0002588,70.0016,351.1927,282.7081,77.3825,5.5649e-05,6.483e-05,0.0,0 STARLINK-5817,1 55779U 23028AQ  23121.02463298  .00006483  00000-0  55649-4 0  9995,2 55779  70.0016 351.1927 0002588 282.7081  77.3825 15.69924388  9824,6737.25,91.724,360.859,357.372,0.0
55779.0,STARLINK-5817,PAYLOAD,2023-05-01 18:56:29,15.69922492,0.0003455,70.0006,349.0429,271.3157,88.7643,1.0546e-05,1.055e-05,0.0,0 STARLINK-5817,1 55779U 23028AQ  23121.78923162  .00001055  00000-0  10546-4 0  9996,2 55779  70.0006 349.0429 0003455 271.3157  88.7643 15.69922492  9949,6737.256,91.724,361.448,356.793,0.0
55779.0,STARLINK-5817,PAYLOAD,2023-05-02 01:03:29,15.69935666,0.0003753,69.9997,348.3266,266.4971,93.5796,5.0527e-05,5.87e-05,0.0,0 STARLINK-5817,1 55779U 23028AQ  23122.04409337  .00005870  00000-0  50527-4 0  9991,2 55779  69.9997 348.3266 0003753 266.4971  93.5796 15.69935666  9980,6737.218,91.724,361.612,356.555,0.0
55779.0,STARLINK-5817,PAYLOAD,2023-05-02 17:52:46,15.69925817,0.0003377,69.9998,346.3548,270.2559,89.8249,6.0791e-06,5.18e-06,0.0,0 STARLINK-5817,1 55779U 23028AQ  23122.74497966  .00000518  00000-0  60791-5 0  9992,2 55779  69.9998 346.3548 0003377 270.2559  89.8249 15.69925817 10091,6737.246,91.724,361.386,356.836,0.0
55779.0,STARLINK-5817,PAYLOAD,2023-05-02 23:59:46,15.69928601,0.0003517,69.9993,345.638,270.5368,89.5424,1.1366e-05,1.154e-05,0.0,0 STARLINK-5817,1 55779U 23028AQ  23122.99984554  .00001154  00000-0  11366-4 0  9993,2 55779  69.9993 345.6380 0003517 270.5368  89.5424 15.69928601 10130,6737.238,91.724,361.473,356.734,0.0
55779.0,STARLINK-5817,PAYLOAD,2023-05-03 18:20:48,15.6991855,0.000324,69.9983,343.4881,274.7075,85.375,1.1336e-05,1.15e-05,0.0,0 STARLINK-5817,1 55779U 23028AQ  23123.76445435  .00001150  00000-0  11336-4 0  9992,2 55779  69.9983 343.4881 0003240 274.7075  85.3750 15.69918550 10256,6737.267,91.725,361.315,356.949,0.0
55779.0,STARLINK-5817,PAYLOAD,2023-05-04 00:27:48,15.69926246,0.00033,69.9981,342.7719,275.0522,85.0297,1.7221e-05,1.859e-05,0.0,0 STARLINK-5817,1 55779U 23028AQ  23124.01931562  .00001859  00000-0  17221-4 0  9997,2 55779  69.9981 342.7719 0003300 275.0522  85.0297 15.69926246 10292,6737.245,91.724,361.333,356.887,0.0
55779.0,STARLINK-5817,PAYLOAD,2023-05-04 08:06:34,15.69928083,0.0003432,69.9977,341.8773,267.9405,92.1398,1.5145e-05,1.609e-05,0.0,0 STARLINK-5817,1 55779U 23028AQ  23124.33789629  .00001609  00000-0  15145-4 0  9993,2 55779  69.9977 341.8773 0003432 267.9405  92.1398 15.69928083 10341,6737.24,91.724,361.417,356.793,0.0
55779.0,STARLINK-5817,PAYLOAD,2023-05-04 21:52:20,15.69924431,0.0003146,69.9983,340.2638,267.0163,93.0673,1.2932e-05,1.343e-05,0.0,0 STARLINK-5817,1 55779U 23028AQ  23124.91135027  .00001343  00000-0  12932-4 0  9990,2 55779  69.9983 340.2638 0003146 267.0163  93.0673 15.69924431 10434,6737.25,91.724,361.235,356.996,0.0
55779.0,STARLINK-5817,PAYLOAD,2023-05-04 23:24:05,15.69921216,0.0003104,69.9986,340.0852,268.8401,91.2439,1.4354e-05,1.513e-05,0.0,0 STARLINK-5817,1 55779U 23028AQ  23124.97506902  .00001513  00000-0  14354-4 0  9999,2 55779  69.9986 340.0852 0003104 268.8401  91.2439 15.69921216 10440,6737.259,91.724,361.216,357.033,0.0
